CCSDS_OMM_VERS = 2.0
CREATION_DATE  = 
ORIGINATOR     = 

OBJECT_NAME    = STARLINK-36050
OBJECT_ID      = 2025-270Q
CENTER_NAME    = EARTH
REF_FRAME      = TEME
TIME_SYSTEM    = UTC
MEAN_ELEMENT_THEORY = SGP/SGP4

EPOCH          = 2025-12-28T06:57:10.616544
MEAN_MOTION    = 15.40727044
ECCENTRICITY   = .00067325
INCLINATION    = 43.0006
RA_OF_ASC_NODE = 103.0933
ARG_OF_PERICENTER = 287.8092
MEAN_ANOMALY   = 72.2030

EPHEMERIS_TYPE = 0
CLASSIFICATION_TYPE = U
NORAD_CAT_ID   = 66602
ELEMENT_SET_NO = 999
REV_AT_EPOCH   = 664
BSTAR          = .15296948E-2
MEAN_MOTION_DOT = .64235E-3
MEAN_MOTION_DDOT = 0

CCSDS_OMM_VERS = 2.0
CREATION_DATE  = 
ORIGINATOR     = 

OBJECT_NAME    = STARLINK-36048
OBJECT_ID      = 2025-270R
CENTER_NAME    = EARTH
REF_FRAME      = TEME
TIME_SYSTEM    = UTC
MEAN_ELEMENT_THEORY = SGP/SGP4

EPOCH          = 2025-12-28T06:28:09.033600
MEAN_MOTION    = 15.40752762
ECCENTRICITY   = .00010385
INCLINATION    = 42.9977
RA_OF_ASC_NODE = 102.9390
ARG_OF_PERICENTER = 314.1767
MEAN_ANOMALY   = 45.9004

EPHEMERIS_TYPE = 0
CLASSIFICATION_TYPE = U
NORAD_CAT_ID   = 66603
ELEMENT_SET_NO = 999
REV_AT_EPOCH   = 664
BSTAR          = .16848137E-2
MEAN_MOTION_DOT = .70856E-3
MEAN_MOTION_DDOT = 0

CCSDS_OMM_VERS = 2.0
CREATION_DATE  = 
ORIGINATOR     = 

OBJECT_NAME    = STARLINK-35977
OBJECT_ID      = 2025-270S
CENTER_NAME    = EARTH
REF_FRAME      = TEME
TIME_SYSTEM    = UTC
MEAN_ELEMENT_THEORY = SGP/SGP4

EPOCH          = 2025-12-27T08:34:44.993280
MEAN_MOTION    = 15.40720018
ECCENTRICITY   = .00016835
INCLINATION    = 42.9989
RA_OF_ASC_NODE = 108.1310
ARG_OF_PERICENTER = 264.0627
MEAN_ANOMALY   = 96.0038

EPHEMERIS_TYPE = 0
CLASSIFICATION_TYPE = U
NORAD_CAT_ID   = 66604
ELEMENT_SET_NO = 999
REV_AT_EPOCH   = 660
BSTAR          = .14741952E-2
MEAN_MOTION_DOT = .61819E-3
MEAN_MOTION_DDOT = 0

CCSDS_OMM_VERS = 2.0
CREATION_DATE  = 
ORIGINATOR     = 

OBJECT_NAME    = STARLINK-36052
OBJECT_ID      = 2025-270T
CENTER_NAME    = EARTH
REF_FRAME      = TEME
TIME_SYSTEM    = UTC
MEAN_ELEMENT_THEORY = SGP/SGP4

EPOCH          = 2025-12-28T07:35:41.281728
MEAN_MOTION    = 15.40744270
ECCENTRICITY   = .00014141
INCLINATION    = 43.0008
RA_OF_ASC_NODE = 102.4255
ARG_OF_PERICENTER = 270.0803
MEAN_ANOMALY   = 89.9891

EPHEMERIS_TYPE = 0
CLASSIFICATION_TYPE = U
NORAD_CAT_ID   = 66605
ELEMENT_SET_NO = 999
REV_AT_EPOCH   = 675
BSTAR          = .15626206E-2
MEAN_MOTION_DOT = .65631E-3
MEAN_MOTION_DDOT = 0

CCSDS_OMM_VERS = 2.0
CREATION_DATE  = 
ORIGINATOR     = 

OBJECT_NAME    = STARLINK-36063
OBJECT_ID      = 2025-270U
CENTER_NAME    = EARTH
REF_FRAME      = TEME
TIME_SYSTEM    = UTC
MEAN_ELEMENT_THEORY = SGP/SGP4

EPOCH          = 2025-12-28T07:13:06.245472
MEAN_MOTION    = 15.40763181
ECCENTRICITY   = .00000564
INCLINATION    = 42.9957
RA_OF_ASC_NODE = 102.2996
ARG_OF_PERICENTER = 156.8550
MEAN_ANOMALY   = 203.2309

EPHEMERIS_TYPE = 0
CLASSIFICATION_TYPE = U
NORAD_CAT_ID   = 66606
ELEMENT_SET_NO = 999
REV_AT_EPOCH   = 675
BSTAR          = .1430838E-2
MEAN_MOTION_DOT = .60064E-3
MEAN_MOTION_DDOT = 0

CCSDS_OMM_VERS = 2.0
CREATION_DATE  = 
ORIGINATOR     = 

OBJECT_NAME    = STARLINK-35993
OBJECT_ID      = 2025-270V
CENTER_NAME    = EARTH
REF_FRAME      = TEME
TIME_SYSTEM    = UTC
MEAN_ELEMENT_THEORY = SGP/SGP4

EPOCH          = 2025-12-27T00:25:24.794112
MEAN_MOTION    = 15.40714883
ECCENTRICITY   = .00004801
INCLINATION    = 42.9959
RA_OF_ASC_NODE = 109.8792
ARG_OF_PERICENTER = 40.5095
MEAN_ANOMALY   = 319.5797

EPHEMERIS_TYPE = 0
CLASSIFICATION_TYPE = U
NORAD_CAT_ID   = 66607
ELEMENT_SET_NO = 999
REV_AT_EPOCH   = 645
BSTAR          = .11935754E-2
MEAN_MOTION_DOT = .49906E-3
MEAN_MOTION_DDOT = 0

CCSDS_OMM_VERS = 2.0
CREATION_DATE  = 
ORIGINATOR     = 

OBJECT_NAME    = STARLINK-36036
OBJECT_ID      = 2025-270W
CENTER_NAME    = EARTH
REF_FRAME      = TEME
TIME_SYSTEM    = UTC
MEAN_ELEMENT_THEORY = SGP/SGP4

EPOCH          = 2025-12-28T07:09:52.985088
MEAN_MOTION    = 15.40769415
ECCENTRICITY   = .00007808
INCLINATION    = 42.9954
RA_OF_ASC_NODE = 102.2844
ARG_OF_PERICENTER = 272.5886
MEAN_ANOMALY   = 87.4881

EPHEMERIS_TYPE = 0
CLASSIFICATION_TYPE = U
NORAD_CAT_ID   = 66608
ELEMENT_SET_NO = 999
REV_AT_EPOCH   = 659
BSTAR          = .22659507E-2
MEAN_MOTION_DOT = .95768E-3
MEAN_MOTION_DDOT = 0

CCSDS_OMM_VERS = 2.0
CREATION_DATE  = 
ORIGINATOR     = 

OBJECT_NAME    = STARLINK-36034
OBJECT_ID      = 2025-270X
CENTER_NAME    = EARTH
REF_FRAME      = TEME
TIME_SYSTEM    = UTC
MEAN_ELEMENT_THEORY = SGP/SGP4

EPOCH          = 2025-12-28T07:03:26.004672
MEAN_MOTION    = 15.40765853
ECCENTRICITY   = .00008974
INCLINATION    = 42.9942
RA_OF_ASC_NODE = 102.2490
ARG_OF_PERICENTER = 180.8206
MEAN_ANOMALY   = 179.2649

EPHEMERIS_TYPE = 0
CLASSIFICATION_TYPE = U
NORAD_CAT_ID   = 66609
ELEMENT_SET_NO = 999
REV_AT_EPOCH   = 659
BSTAR          = .18997057E-2
MEAN_MOTION_DOT = .80064E-3
MEAN_MOTION_DDOT = 0

CCSDS_OMM_VERS = 2.0
CREATION_DATE  = 
ORIGINATOR     = 

OBJECT_NAME    = STARLINK-35680
OBJECT_ID      = 2025-270Y
CENTER_NAME    = EARTH
REF_FRAME      = TEME
TIME_SYSTEM    = UTC
MEAN_ELEMENT_THEORY = SGP/SGP4

EPOCH          = 2025-12-28T07:26:00.579552
MEAN_MOTION    = 15.40765317
ECCENTRICITY   = .00036405
INCLINATION    = 42.9984
RA_OF_ASC_NODE = 102.3708
ARG_OF_PERICENTER = 290.0290
MEAN_ANOMALY   = 70.0175

EPHEMERIS_TYPE = 0
CLASSIFICATION_TYPE = U
NORAD_CAT_ID   = 66610
ELEMENT_SET_NO = 999
REV_AT_EPOCH   = 686
BSTAR          = .18070617E-2
MEAN_MOTION_DOT = .76115E-3
MEAN_MOTION_DDOT = 0

CCSDS_OMM_VERS = 2.0
CREATION_DATE  = 
ORIGINATOR     = 

OBJECT_NAME    = STARLINK-35583
OBJECT_ID      = 2025-270Z
CENTER_NAME    = EARTH
REF_FRAME      = TEME
TIME_SYSTEM    = UTC
MEAN_ELEMENT_THEORY = SGP/SGP4

EPOCH          = 2025-12-28T07:19:33.682944
MEAN_MOTION    = 15.40750128
ECCENTRICITY   = .00005904
INCLINATION    = 42.9974
RA_OF_ASC_NODE = 102.3369
ARG_OF_PERICENTER = 150.1211
MEAN_ANOMALY   = 209.9679

EPHEMERIS_TYPE = 0
CLASSIFICATION_TYPE = U
NORAD_CAT_ID   = 66611
ELEMENT_SET_NO = 999
REV_AT_EPOCH   = 686
BSTAR          = .14055E-2
MEAN_MOTION_DOT = .58961E-3
MEAN_MOTION_DDOT = 0

CCSDS_OMM_VERS = 2.0
CREATION_DATE  = 
ORIGINATOR     = 

OBJECT_NAME    = STARLINK-36039
OBJECT_ID      = 2025-270AA
CENTER_NAME    = EARTH
REF_FRAME      = TEME
TIME_SYSTEM    = UTC
MEAN_ELEMENT_THEORY = SGP/SGP4

EPOCH          = 2025-12-28T06:50:43.859904
MEAN_MOTION    = 15.40791376
ECCENTRICITY   = .00011199
INCLINATION    = 42.9980
RA_OF_ASC_NODE = 103.0552
ARG_OF_PERICENTER = 219.6855
MEAN_ANOMALY   = 140.3919

EPHEMERIS_TYPE = 0
CLASSIFICATION_TYPE = U
NORAD_CAT_ID   = 66612
ELEMENT_SET_NO = 999
REV_AT_EPOCH   = 674
BSTAR          = .14131592E-2
MEAN_MOTION_DOT = .59368E-3
MEAN_MOTION_DDOT = 0

CCSDS_OMM_VERS = 2.0
CREATION_DATE  = 
ORIGINATOR     = 

OBJECT_NAME    = STARLINK-36037
OBJECT_ID      = 2025-270AB
CENTER_NAME    = EARTH
REF_FRAME      = TEME
TIME_SYSTEM    = UTC
MEAN_ELEMENT_THEORY = SGP/SGP4

EPOCH          = 2025-12-28T06:44:16.514016
MEAN_MOTION    = 15.40737313
ECCENTRICITY   = .00033226
INCLINATION    = 42.9995
RA_OF_ASC_NODE = 103.0209
ARG_OF_PERICENTER = 278.7867
MEAN_ANOMALY   = 81.2613

EPHEMERIS_TYPE = 0
CLASSIFICATION_TYPE = U
NORAD_CAT_ID   = 66613
ELEMENT_SET_NO = 999
REV_AT_EPOCH   = 674
BSTAR          = .11447181E-2
MEAN_MOTION_DOT = .4788E-3
MEAN_MOTION_DDOT = 0

